{"type": "FeatureCollection", "features": [ {"type": "Feature", "properties": {"norad_id": 34077, "name": "IRIDIUM 33 DEB", "group": "iridium-33-debris", "lat": -86.1159573976668, "lon": -56.30015833671759, "alt_km": 692.8306970481817, "timestamp": "2025-12-04T09:47:37.904824+00:00", "meta": {"OBJECT_NAME": "IRIDIUM 33 DEB", "OBJECT_ID": "1997-051CL", "EPOCH": "2025-12-04T03:49:43.202784", "MEAN_MOTION": 14.64610306, "ECCENTRICITY": 0.0010902, "INCLINATION": 86.3873, "RA_OF_ASC_NODE": 55.2863, "ARG_OF_PERICENTER": 66.3634, "MEAN_ANOMALY": 332.6052, "EPHEMERIS_TYPE": 0, "CLASSIFICATION_TYPE": "U", "NORAD_CAT_ID": 34077, "ELEMENT_SET_NO": 999, "REV_AT_EPOCH": 88207, "BSTAR": 0.0039797, "MEAN_MOTION_DOT": 0.00021218, "MEAN_MOTION_DDOT": 0}, "tle": {"line1": "1 34077U 97051CL  25338.15952781  .00021218  00000+0  39797-2 0  9992", "line2": "2 34077  86.3873  55.2863 0010902  66.3634 332.6052 14.64610306882074"}}, "geometry": {"type": "Point", "coordinates": [-56.30015833671759, -86.1159573976668]}}, {"type": "Feature", "properties": {"norad_id": 34079, "name": "IRIDIUM 33 DEB", "group": "iridium-33-debris", "lat": 62.45921540027054, "lon": 19.427954903161147, "alt_km": 609.2249742091672, "timestamp": "2025-12-04T09:47:37.904835+00:00", "meta": {"OBJECT_NAME": "IRIDIUM 33 DEB", "OBJECT_ID": "1997-051CN", "EPOCH": "2025-12-04T03:17:56.761728", "MEAN_MOTION": 14.83177277, "ECCENTRICITY": 0.0006628, "INCLINATION": 86.3779, "RA_OF_ASC_NODE": 12.5738, "ARG_OF_PERICENTER": 34.6176, "MEAN_ANOMALY": 24.0914, "EPHEMERIS_TYPE": 0, "CLASSIFICATION_TYPE": "U", "NORAD_CAT_ID": 34079, "ELEMENT_SET_NO": 999, "REV_AT_EPOCH": 88850, "BSTAR": 0.0034857, "MEAN_MOTION_DOT": 0.0002856, "MEAN_MOTION_DDOT": 0}, "tle": {"line1": "1 34079U 97051CN  25338.13746252  .00028560  00000+0  34857-2 0  9995", "line2": "2 34079  86.3779  12.5738 0006628  34.6176  24.0914 14.83177277888506"}}, "geometry": {"type": "Point", "coordinates": [19.427954903161147, 62.45921540027054]}}, {"type": "Feature", "properties": {"norad_id": 34088, "name": "IRIDIUM 33 DEB", "group": "iridium-33-debris", "lat": -76.47203076285517, "lon": 19.319154411470958, "alt_km": 602.1442343173721, "timestamp": "2025-12-04T09:47:37.904845+00:00", "meta": {"OBJECT_NAME": "IRIDIUM 33 DEB", "OBJECT_ID": "1997-051CX", "EPOCH": "2025-12-04T03:55:52.243104", "MEAN_MOTION": 14.90715065, "ECCENTRICITY": 0.0005152, "INCLINATION": 86.3857, "RA_OF_ASC_NODE": 34.6625, "ARG_OF_PERICENTER": 208.3378, "MEAN_ANOMALY": 204.601, "EPHEMERIS_TYPE": 0, "CLASSIFICATION_TYPE": "U", "NORAD_CAT_ID": 34088, "ELEMENT_SET_NO": 999, "REV_AT_EPOCH": 88614, "BSTAR": 0.005902, "MEAN_MOTION_DOT": 0.00058368, "MEAN_MOTION_DDOT": 0}, "tle": {"line1": "1 34088U 97051CX  25338.16379911  .00058368  00000+0  59020-2 0  9990", "line2": "2 34088  86.3857  34.6625 0005152 208.3378 204.6010 14.90715065886140"}}, "geometry": {"type": "Point", "coordinates": [19.319154411470958, -76.47203076285517]}}, {"type": "Feature", "properties": {"norad_id": 34091, "name": "IRIDIUM 33 DEB", "group": "iridium-33-debris", "lat": 40.59271253637506, "lon": 73.78899415000369, "alt_km": 618.6469399933258, "timestamp": "2025-12-04T09:47:37.904855+00:00", "meta": {"OBJECT_NAME": "IRIDIUM 33 DEB", "OBJECT_ID": "1997-051DA", "EPOCH": "2025-12-03T23:52:48.680832", "MEAN_MOTION": 14.80720487, "ECCENTRICITY": 0.0032914, "INCLINATION": 86.3424, "RA_OF_ASC_NODE": 70.8357, "ARG_OF_PERICENTER": 324.8669, "MEAN_ANOMALY": 35.0381, "EPHEMERIS_TYPE": 0, "CLASSIFICATION_TYPE": "U", "NORAD_CAT_ID": 34091, "ELEMENT_SET_NO": 999, "REV_AT_EPOCH": 87737, "BSTAR": 0.010719, "MEAN_MOTION_DOT": 0.00084153, "MEAN_MOTION_DDOT": 0}, "tle": {"line1": "1 34091U 97051DA  25337.99500788  .00084153  00000+0  10719-1 0  9994", "line2": "2 34091  86.3424  70.8357 0032914 324.8669  35.0381 14.80720487877376"}}, "geometry": {"type": "Point", "coordinates": [73.78899415000369, 40.59271253637506]}}, {"type": "Feature", "properties": {"norad_id": 34097, "name": "IRIDIUM 33 DEB", "group": "iridium-33-debris", "lat": -63.57288863827932, "lon": -167.23013785022354, "alt_km": 832.5484466695898, "timestamp": "2025-12-04T09:47:37.904865+00:00", "meta": {"OBJECT_NAME": "IRIDIUM 33 DEB", "OBJECT_ID": "1997-051DG", "EPOCH": "2025-12-04T01:57:54.018144", "MEAN_MOTION": 14.34672763, "ECCENTRICITY": 0.0083592, "INCLINATION": 86.2004, "RA_OF_ASC_NODE": 5.2294, "ARG_OF_PERICENTER": 30.3184, "MEAN_ANOMALY": 330.2808, "EPHEMERIS_TYPE": 0, "CLASSIFICATION_TYPE": "U", "NORAD_CAT_ID": 34097, "ELEMENT_SET_NO": 999, "REV_AT_EPOCH": 86995, "BSTAR": 0.0025969, "MEAN_MOTION_DOT": 7.662e-05, "MEAN_MOTION_DDOT": 0}, "tle": {"line1": "1 34097U 97051DG  25338.08187521  .00007662  00000+0  25969-2 0  9991", "line2": "2 34097  86.2004   5.2294 0083592  30.3184 330.2808 14.34672763869957"}}, "geometry": {"type": "Point", "coordinates": [-167.23013785022354, -63.57288863827932]}}, {"type": "Feature", "properties": {"norad_id": 34145, "name": "IRIDIUM 33 DEB", "group": "iridium-33-debris", "lat": -71.07241749760063, "lon": -34.90499163974538, "alt_km": 797.2571756625612, "timestamp": "2025-12-04T09:47:37.904876+00:00", "meta": {"OBJECT_NAME": "IRIDIUM 33 DEB", "OBJECT_ID": "1997-051DY", "EPOCH": "2025-12-04T00:08:11.975424", "MEAN_MOTION": 14.42192963, "ECCENTRICITY": 0.0055334, "INCLINATION": 86.2111, "RA_OF_ASC_NODE": 336.4167, "ARG_OF_PERICENTER": 121.5904, "MEAN_ANOMALY": 239.0714, "EPHEMERIS_TYPE": 0, "CLASSIFICATION_TYPE": "U", "NORAD_CAT_ID": 34145, "ELEMENT_SET_NO": 999, "REV_AT_EPOCH": 87512, "BSTAR": 0.002013, "MEAN_MOTION_DOT": 6.772e-05, "MEAN_MOTION_DDOT": 0}, "tle": {"line1": "1 34145U 97051DY  25338.00569416  .00006772  00000+0  20130-2 0  9990", "line2": "2 34145  86.2111 336.4167 0055334 121.5904 239.0714 14.42192963875120"}}, "geometry": {"type": "Point", "coordinates": [-34.90499163974538, -71.07241749760063]}}, {"type": "Feature", "properties": {"norad_id": 34146, "name": "IRIDIUM 33 DEB", "group": "iridium-33-debris", "lat": 82.59390272650917, "lon": 23.48549663733915, "alt_km": 739.0450701761893, "timestamp": "2025-12-04T09:47:37.904886+00:00", "meta": {"OBJECT_NAME": "IRIDIUM 33 DEB", "OBJECT_ID": "1997-051DZ", "EPOCH": "2025-12-04T01:24:47.588832", "MEAN_MOTION": 14.48952534, "ECCENTRICITY": 0.0025002, "INCLINATION": 86.2834, "RA_OF_ASC_NODE": 353.6357, "ARG_OF_PERICENTER": 252.753, "MEAN_ANOMALY": 170.5987, "EPHEMERIS_TYPE": 0, "CLASSIFICATION_TYPE": "U", "NORAD_CAT_ID": 34146, "ELEMENT_SET_NO": 999, "REV_AT_EPOCH": 87981, "BSTAR": 0.0019733, "MEAN_MOTION_DOT": 7.524e-05, "MEAN_MOTION_DDOT": 0}, "tle": {"line1": "1 34146U 97051DZ  25338.05888413  .00007524  00000+0  19733-2 0  9990", "line2": "2 34146  86.2834 353.6357 0025002 252.7530 170.5987 14.48952534879811"}}, "geometry": {"type": "Point", "coordinates": [23.48549663733915, 82.59390272650917]}}, {"type": "Feature", "properties": {"norad_id": 34159, "name": "IRIDIUM 33 DEB", "group": "iridium-33-debris", "lat": 65.7948108156541, "lon": -136.3661765427057, "alt_km": 774.5784457854734, "timestamp": "2025-12-04T09:47:37.904896+00:00", "meta": {"OBJECT_NAME": "IRIDIUM 33 DEB", "OBJECT_ID": "1997-051EN", "EPOCH": "2025-12-04T04:15:26.250624", "MEAN_MOTION": 14.38461079, "ECCENTRICITY": 0.0026411, "INCLINATION": 86.3517, "RA_OF_ASC_NODE": 51.8918, "ARG_OF_PERICENTER": 317.9341, "MEAN_ANOMALY": 41.9828, "EPHEMERIS_TYPE": 0, "CLASSIFICATION_TYPE": "U", "NORAD_CAT_ID": 34159, "ELEMENT_SET_NO": 999, "REV_AT_EPOCH": 87836, "BSTAR": 0.00075867, "MEAN_MOTION_DOT": 2.343e-05, "MEAN_MOTION_DDOT": 0}, "tle": {"line1": "1 34159U 97051EN  25338.17738716  .00002343  00000+0  75867-3 0  9992", "line2": "2 34159  86.3517  51.8918 0026411 317.9341  41.9828 14.38461079878365"}}, "geometry": {"type": "Point", "coordinates": [-136.3661765427057, 65.7948108156541]}}, {"type": "Feature", "properties": {"norad_id": 34350, "name": "IRIDIUM 33 DEB", "group": "iridium-33-debris", "lat": -63.5887950427775, "lon": -1.0063176407380325, "alt_km": 759.1268367580142, "timestamp": "2025-12-04T09:47:37.904907+00:00", "meta": {"OBJECT_NAME": "IRIDIUM 33 DEB", "OBJECT_ID": "1997-051ES", "EPOCH": "2025-12-03T13:05:45.086208", "MEAN_MOTION": 14.45352989, "ECCENTRICITY": 0.00218806, "INCLINATION": 86.3282, "RA_OF_ASC_NODE": 6.7966, "ARG_OF_PERICENTER": 164.2068, "MEAN_ANOMALY": 327.3163, "EPHEMERIS_TYPE": 0, "CLASSIFICATION_TYPE": "U", "NORAD_CAT_ID": 34350, "ELEMENT_SET_NO": 999, "REV_AT_EPOCH": 88160, "BSTAR": 0.00045695829, "MEAN_MOTION_DOT": 1.63e-05, "MEAN_MOTION_DDOT": 0}, "tle": {"line1": "1 34350U 97051ES  25337.54566072  .00001630  00000+0  45696-3 0  9994", "line2": "2 34350  86.3282   6.7966 0021880 164.2068 327.3163 14.45352989881604"}}, "geometry": {"type": "Point", "coordinates": [-1.0063176407380325, -63.5887950427775]}}, {"type": "Feature", "properties": {"norad_id": 34366, "name": "IRIDIUM 33 DEB", "group": "iridium-33-debris", "lat": 5.4107833136174, "lon": 53.28058360718082, "alt_km": 729.7670634115029, "timestamp": "2025-12-04T09:47:37.904917+00:00", "meta": {"OBJECT_NAME": "IRIDIUM 33 DEB", "OBJECT_ID": "1997-051FJ", "EPOCH": "2025-12-03T16:10:25.403232", "MEAN_MOTION": 14.53916693, "ECCENTRICITY": 0.00217683, "INCLINATION": 86.3709, "RA_OF_ASC_NODE": 53.2552, "ARG_OF_PERICENTER": 168.8, "MEAN_ANOMALY": 316.5476, "EPHEMERIS_TYPE": 0, "CLASSIFICATION_TYPE": "U", "NORAD_CAT_ID": 34366, "ELEMENT_SET_NO": 999, "REV_AT_EPOCH": 88050, "BSTAR": 0.0018858841, "MEAN_MOTION_DOT": 7.981e-05, "MEAN_MOTION_DDOT": 0}, "tle": {"line1": "1 34366U 97051FJ  25337.67390513  .00007981  00000+0  18859-2 0  9995", "line2": "2 34366  86.3709  53.2552 0021768 168.8000 316.5476 14.53916693880506"}}, "geometry": {"type": "Point", "coordinates": [53.28058360718082, 5.4107833136174]}}]}